0 IRIDIUM 33 DEB
1 35921U 97051UE  24016.91800027  .00031856  00000-0  77628-2 0  9997
2 35921  86.4044  84.7910 0092191  88.6571 272.5193 14.49974375552255
0 IRIDIUM 33 DEB
1 35926U 97051UK  24021.60455535  .00107557  00000-0  73134-2 0  9994
2 35926  86.3272 254.6633 0002388 126.1522 233.9934 15.05829640772429
0 IRIDIUM 33 DEB
1 35929U 97051UN  24017.97012534  .00013096  00000-0  23653-2 0  9995
2 35929  86.3459 270.8813 0024880 317.4650  42.4635 14.66158818774899
0 IRIDIUM 33 DEB
1 36011U 97051US  24013.16586897  .00003413  00000-0  11398-2 0  9998
2 36011  86.3437 334.7594 0019758  12.9690  45.5094 14.37140890544777
0 IRIDIUM 33 DEB
1 36021U 97051VC  24021.05129396  .00092725  00000-0  10963-1 0  9993
2 36021  86.3991  48.5426 0056668 175.7730 184.3984 14.83011463485533
0 IRIDIUM 33 DEB
1 36028U 97051VK  24014.99816394  .00013612  00000-0  25446-2 0  9997
2 36028  86.3295 265.6676 0028324 337.2086  22.7866 14.64559311768146
0 IRIDIUM 33 DEB
1 36080U 97051VM  24019.53672745  .00004405  00000-0  13639-2 0  9991
2 36080  86.3229 308.5040 0016574 305.5115  54.4537 14.40971265374115
0 IRIDIUM 33 DEB
1 36083U 97051VQ  24015.15730830  .00004796  00000-0  15623-2 0  9996
2 36083  86.3442 333.1714 0029456  12.2489 347.9418 14.38305531754042
0 IRIDIUM 33 DEB
1 36390U 97051VU  23360.47750349  .00007351  00000-0  15889-2 0  9995
2 36390  86.2919 263.4119 0045278 108.2331 252.3813 14.57539489778267
0 IRIDIUM 33 DEB
1 36483U 97051VZ  24020.66808100  .00004112  00000-0  12880-2 0  9992
2 36483  86.3847 347.3551 0007150 259.0961 100.9434 14.40443827551633
0 IRIDIUM 33 DEB
1 36485U 97051WB  24019.11589575  .00046242  00000-0  89201-2 0  9995
2 36485  86.4227  78.4783 0087301 294.2235  64.9871 14.60812252565091
0 IRIDIUM 33 DEB
1 36490U 97051WG  24021.24964922  .00010358  00000-0  23853-2 0  9991
2 36490  86.3741 316.6759 0001285  51.7497 308.3826 14.55283149763579
0 IRIDIUM 33 DEB
1 36493U 97051WK  24022.09371009  .00006982  00000-0  17550-2 0  9991
2 36493  86.3638 314.8601 0013876 152.7102 207.4835 14.51088786770446
0 IRIDIUM 33 DEB
1 36497U 97051WP  24009.32882388  .00005471  00000-0  15529-2 0  9999
2 36497  86.1665 217.5281 0064567 325.5644  34.1380 14.44077191759093
0 IRIDIUM 33 DEB
1 37136U 97051XG  24014.00695948  .00003000  00000-0  12704-2 0  9993
2 37136  86.1742 283.3048 0084579  70.1049 290.9229 14.23244035758597
0 IRIDIUM 33 DEB
1 37548U 97051XH  24017.63401447  .00008876  00000-0  27422-2 0  9990
2 37548  86.3590 343.2408 0027436 352.0011   8.0747 14.41012246554845
0 IRIDIUM 33 DEB
1 37550U 97051XK  24006.19365905  .00005139  00000-0  12729-2 0  9993
2 37550  86.3881 332.9293 0003723  48.8555 311.2971 14.51805860760271
0 IRIDIUM 33 DEB
1 37565U 97051YA  24011.10075244  .00003599  00000-0  10111-2 0  9991
2 37565  86.3497 313.6816 0010390 260.9793  99.0233 14.45694523556782
0 IRIDIUM 33 DEB
1 38017U 97051YD  24020.67510600  .00007077  00000-0  29754-2 0  9994
2 38017  86.3341  99.6769 0175993 190.9951 168.7370 14.17704717514922
0 IRIDIUM 33 DEB
1 38225U 97051YZ  23364.57957472  .00020512  00000-0  75565-2 0  9996
2 38225  86.3141 104.7063 0163755 239.0474 182.0482 14.25281865521850
