OBJECT_NAME,OBJECT_ID,EPOCH,MEAN_MOTION,ECCENTRICITY,INCLINATION,RA_OF_ASC_NODE,ARG_OF_PERICENTER,MEAN_ANOMALY,EPHEMERIS_TYPE,CLASSIFICATION_TYPE,NORAD_CAT_ID,ELEMENT_SET_NO,REV_AT_EPOCH,BSTAR,MEAN_MOTION_DOT,MEAN_MOTION_DDOT
IRIDIUM 33 DEB,1997-051UE,2024-01-16T22:01:55.223328,14.49974375,.0092191,86.4044,84.7910,88.6571,272.5193,0,U,35921,999,55225,.77628E-2,.31856E-3,0
IRIDIUM 33 DEB,1997-051UK,2024-01-21T14:30:33.582240,15.05829640,.0002388,86.3272,254.6633,126.1522,233.9934,0,U,35926,999,77242,.73134E-2,.107557E-2,0
IRIDIUM 33 DEB,1997-051UN,2024-01-17T23:16:58.829376,14.66158818,.002488,86.3459,270.8813,317.4650,42.4635,0,U,35929,999,77489,.23653E-2,.13096E-3,0
IRIDIUM 33 DEB,1997-051US,2024-01-13T03:58:51.079008,14.37140890,.0019758,86.3437,334.7594,12.9690,45.5094,0,U,36011,999,54477,.11398E-2,.3413E-4,0
IRIDIUM 33 DEB,1997-051VC,2024-01-21T01:13:51.798144,14.83011463,.0056668,86.3991,48.5426,175.7730,184.3984,0,U,36021,999,48553,.10963E-1,.92725E-3,0
IRIDIUM 33 DEB,1997-051VK,2024-01-14T23:57:21.364416,14.64559311,.0028324,86.3295,265.6676,337.2086,22.7866,0,U,36028,999,76814,.25446E-2,.13612E-3,0
IRIDIUM 33 DEB,1997-051VM,2024-01-19T12:52:53.251680,14.40971265,.0016574,86.3229,308.5040,305.5115,54.4537,0,U,36080,999,37411,.13639E-2,.4405E-4,0
IRIDIUM 33 DEB,1997-051VQ,2024-01-15T03:46:31.437120,14.38305531,.0029456,86.3442,333.1714,12.2489,347.9418,0,U,36083,999,75404,.15623E-2,.4796E-4,0
IRIDIUM 33 DEB,1997-051VU,2023-12-26T11:27:36.301536,14.57539489,.0045278,86.2919,263.4119,108.2331,252.3813,0,U,36390,999,77826,.15889E-2,.7351E-4,0
IRIDIUM 33 DEB,1997-051VZ,2024-01-20T16:02:02.198400,14.40443827,.000715,86.3847,347.3551,259.0961,100.9434,0,U,36483,999,55163,.1288E-2,.4112E-4,0
IRIDIUM 33 DEB,1997-051WB,2024-01-19T02:46:53.392800,14.60812252,.0087301,86.4227,78.4783,294.2235,64.9871,0,U,36485,999,56509,.89201E-2,.46242E-3,0
IRIDIUM 33 DEB,1997-051WG,2024-01-21T05:59:29.692608,14.55283149,.0001285,86.3741,316.6759,51.7497,308.3826,0,U,36490,999,76357,.23853E-2,.10358E-3,0
IRIDIUM 33 DEB,1997-051WK,2024-01-22T02:14:56.551776,14.51088786,.0013876,86.3638,314.8601,152.7102,207.4835,0,U,36493,999,64453,.1755E-2,.6982E-4,0
IRIDIUM 33 DEB,1997-051WP,2024-01-09T07:53:30.383232,14.44077191,.0064567,86.1665,217.5281,325.5644,34.1380,0,U,36497,999,75909,.15529E-2,.5471E-4,0
IRIDIUM 33 DEB,1997-051XG,2024-01-14T00:10:01.299072,14.23244035,.0084579,86.1742,283.3048,70.1049,290.9229,0,U,37136,999,75859,.12704E-2,.3E-4,0
IRIDIUM 33 DEB,1997-051XH,2024-01-17T15:12:58.850208,14.41012246,.0027436,86.3590,343.2408,352.0011,8.0747,0,U,37548,999,55484,.27422E-2,.8876E-4,0
IRIDIUM 33 DEB,1997-051XK,2024-01-06T04:38:52.141920,14.51805860,.0003723,86.3881,332.9293,48.8555,311.2971,0,U,37550,999,76027,.12729E-2,.5139E-4,0
IRIDIUM 33 DEB,1997-051YA,2024-01-11T02:25:05.010816,14.45694523,.001039,86.3497,313.6816,260.9793,99.0233,0,U,37565,999,55678,.10111E-2,.3599E-4,0
IRIDIUM 33 DEB,1997-051YD,2024-01-20T16:12:09.158400,14.17704717,.0175993,86.3341,99.6769,190.9951,168.7370,0,U,38017,999,51492,.29754E-2,.7077E-4,0
IRIDIUM 33 DEB,1997-051YZ,2023-12-30T13:54:35.255808,14.25281865,.0163755,86.3141,104.7063,239.0474,182.0482,0,U,38225,999,52185,.75565E-2,.20512E-3,0
